BLUEWALKER-3            
1 53807U 22111AL  26203.77921773  .00004863  00000+0  13556-3 0  9999
2 53807  53.2275 226.8231 0004789 299.0530  60.9995 15.38668225215685
